     2.10           G: GLONASS NAV DATA                     RINEX VERSION / TYPE
teqc  2015Jun23                         20220530 01:25:37UTCPGM / RUN BY / DATE
Linux 2.4.21-27.ELsmp|Opteron|gcc -static|Linux x86_64|=+   COMMENT
  2022     5    19   -0.000000000000D+00                    CORR TO SYSTEM TIME
                                                            END OF HEADER
13 22  5 20 14 15  0.0-2.255290746689D-05-0.000000000000D+00 5.040000000000D+04
   -2.279509423828D+04 8.806629180908D-01-0.000000000000D+00 0.000000000000D+00
    9.217357421875D+03-3.326349258423D-01-9.313225746155D-10-2.000000000000D+00
    6.776782226562D+03 3.407065391541D+00-2.793967723846D-09 0.000000000000D+00
14 22  5 20 14 15  0.0 2.561695873737D-05-0.000000000000D+00 5.040000000000D+04
   -1.639720800781D+04-1.342406272888D+00-1.862645149231D-09 0.000000000000D+00
    1.564645166016D+04 8.867940902710D-01-1.862645149231D-09-7.000000000000D+00
   -1.171109033203D+04 3.059466362000D+00-0.000000000000D+00 0.000000000000D+00
15 22  5 20 14 15  0.0 9.599421173334D-05-9.094947017729D-13 5.040000000000D+04
   -5.703544921875D+02-2.649910926819D+00-1.862645149231D-09 0.000000000000D+00
    1.247698291016D+04 1.505117416382D+00-9.313225746155D-10 0.000000000000D+00
   -2.222209570312D+04 9.118766784668D-01 1.862645149231D-09 0.000000000000D+00
17 22  5 20 14 15  0.0 5.277097225189D-04 2.728484105319D-12 5.040000000000D+04
   -5.893816894531D+03 2.397241592407D-01-0.000000000000D+00 0.000000000000D+00
    2.194320800781D+04-1.579689979553D+00-9.313225746155D-10 4.000000000000D+00
   -1.155837841797D+04-3.123761177063D+00 9.313225746155D-10 0.000000000000D+00
24 22  5 20 14 15  0.0 9.465403854847D-05 1.818989403546D-12 5.040000000000D+04
   -1.068035888672D+04 1.717367172241D-01-3.725290298462D-09 0.000000000000D+00
    6.439365722656D+03-3.044605255127D+00-1.862645149231D-09 2.000000000000D+00
   -2.223984521484D+04-9.644269943237D-01 0.000000000000D+00 0.000000000000D+00
 3 22  5 20 14 15  0.0 5.699694156647D-05 9.094947017729D-13 5.052000000000D+04
   -5.073591308594D+03-2.682310104370D+00 2.793967723846D-09 0.000000000000D+00
    9.729539550781D+03-1.643696784973D+00 0.000000000000D+00 5.000000000000D+00
    2.307791699219D+04 9.869384765625D-02-1.862645149231D-09 0.000000000000D+00
19 22  5 20 14 15  0.0-1.896694302559D-04-9.094947017729D-13 5.193000000000D+04
    7.174332519531D+03-3.628730773926D-03 3.725290298462D-09 0.000000000000D+00
    1.609212207031D+04 2.535994529724D+00 0.000000000000D+00 3.000000000000D+00
    1.843887890625D+04-2.210793495178D+00 0.000000000000D+00 0.000000000000D+00
18 22  5 20 14 45  0.0 1.174788922071D-04 9.094947017729D-13 5.220000000000D+04
    1.812184082031D+03 2.272825241089D-01 9.313225746155D-10 0.000000000000D+00
    2.543891064453D+04-2.044486999512D-01-9.313225746155D-10-3.000000000000D+00
   -1.321902832031D+03-3.596723556519D+00 9.313225746155D-10 0.000000000000D+00
 4 22  5 20 14 45  0.0 1.424467191100D-04 1.818989403546D-12 5.220000000000D+04
    7.446260742188D+03-2.483037948608D+00 3.725290298462D-09 0.000000000000D+00
    1.369954541016D+04-1.212028503418D+00 0.000000000000D+00 6.000000000000D+00
    2.022321093750D+04 1.737465858459D+00-0.000000000000D+00 0.000000000000D+00
13 22  5 20 14 45  0.0-2.255383878946D-05-0.000000000000D+00 5.220000000000D+04
   -2.066184130859D+04 1.451084136963D+00-0.000000000000D+00 0.000000000000D+00
    8.090344726562D+03-9.383182525635D-01-9.313225746155D-10-2.000000000000D+00
    1.256805273438D+04 2.985844612122D+00-2.793967723846D-09 0.000000000000D+00
14 22  5 20 14 45  0.0 2.561695873737D-05-0.000000000000D+00 5.220000000000D+04
   -1.810561474609D+04-5.595073699951D-01-1.862645149231D-09 0.000000000000D+00
    1.700909423828D+04 5.852794647217D-01-1.862645149231D-09-7.000000000000D+00
   -5.822621093750D+03 3.440790176392D+00-9.313225746155D-10 0.000000000000D+00
15 22  5 20 14 45  0.0 9.599421173334D-05-0.000000000000D+00 5.220000000000D+04
   -4.903686035156D+03-2.133331298828D+00-1.862645149231D-09 0.000000000000D+00
    1.536818701172D+04 1.668394088745D+00-9.313225746155D-10 0.000000000000D+00
   -1.974143701172D+04 1.826450347900D+00 9.313225746155D-10 0.000000000000D+00
17 22  5 20 14 45  0.0 5.277153104544D-04 2.728484105319D-12 5.220000000000D+04
   -5.719631835938D+03-7.834529876709D-02-1.862645149231D-09 0.000000000000D+00
    1.843038916016D+04-2.289628028870D+00-9.313225746155D-10 4.000000000000D+00
   -1.666070947266D+04-2.508660316467D+00 9.313225746155D-10 0.000000000000D+00
19 22  5 20 14 45  0.0-1.896722242236D-04-9.094947017729D-13 5.220000000000D+04
    7.500303710938D+03 3.350114822388D-01 2.793967723846D-09 0.000000000000D+00
    2.009639013672D+04 1.875815391541D+00-0.000000000000D+00 3.000000000000D+00
    1.379772949219D+04-2.912530899048D+00 0.000000000000D+00 0.000000000000D+00
18 22  5 20 15 15  0.0 1.174816861749D-04 9.094947017729D-13 5.400000000000D+04
    2.044411621094D+03-8.803367614746D-03-0.000000000000D+00 0.000000000000D+00
    2.427149902344D+04-1.075844764709D+00-9.313225746155D-10-3.000000000000D+00
   -7.661674804688D+03-3.401856422424D+00 9.313225746155D-10 0.000000000000D+00
14 22  5 20 15 15  0.0 2.561695873737D-05 0.000000000000D+00 5.400000000000D+04
   -1.845773193359D+04 1.467895507812D-01-9.313225746155D-10 0.000000000000D+00
    1.761354394531D+04 5.198097229004D-02-9.313225746155D-10-7.000000000000D+00
    5.157685546875D+02 3.556164741516D+00-1.862645149231D-09 0.000000000000D+00
 4 22  5 20 15 15  0.0 1.424513757229D-04 1.818989403546D-12 5.400000000000D+04
    2.532511718750D+03-2.936371803284D+00 2.793967723846D-09 0.000000000000D+00
    1.175278759766D+04-9.202184677124D-01-0.000000000000D+00 6.000000000000D+00
    2.253135156250D+04 8.105897903442D-01-9.313225746155D-10 0.000000000000D+00
15 22  5 20 15 15  0.0 9.599328041077D-05-0.000000000000D+00 5.400000000000D+04
   -8.166665527344D+03-1.477908134460D+00-1.862645149231D-09 0.000000000000D+00
    1.832881347656D+04 1.575791358948D+00-9.313225746155D-10 0.000000000000D+00
   -1.573209082031D+04 2.599370002747D+00 0.000000000000D+00 0.000000000000D+00
17 22  5 20 15 15  0.0 5.277208983898D-04 2.728484105319D-12 5.400000000000D+04
   -6.266856445312D+03-5.471057891846D-01-2.793967723846D-09 0.000000000000D+00
    1.384731298828D+04-2.756236076355D+00-9.313225746155D-10 4.000000000000D+00
   -2.047290185547D+04-1.699642181396D+00 9.313225746155D-10 0.000000000000D+00
19 22  5 20 15 15  0.0-1.896740868688D-04-9.094947017729D-13 5.400000000000D+04
    8.248989257812D+03 4.560260772705D-01 1.862645149231D-09 0.000000000000D+00
    2.273989648438D+04 1.041252136230D+00-9.313225746155D-10 3.000000000000D+00
    8.089319824219D+03-3.388936042786D+00 0.000000000000D+00 0.000000000000D+00
18 22  5 20 15 45  0.0 1.174844801426D-04 9.094947017729D-13 5.580000000000D+04
    1.654172363281D+03-4.540853500366D-01-9.313225746155D-10 0.000000000000D+00
    2.165904394531D+04-1.792798995972D+00-9.313225746155D-10-3.000000000000D+00
   -1.341071875000D+04-2.944557189941D+00 9.313225746155D-10 0.000000000000D+00
14 22  5 20 15 45  0.0 2.561695873737D-05 0.000000000000D+00 5.580000000000D+04
   -1.768099951172D+04 6.811227798462D-01-9.313225746155D-10 0.000000000000D+00
    1.709558740234D+04-6.479940414429D-01-9.313225746155D-10-7.000000000000D+00
    6.814341308594D+03 3.396867752075D+00-2.793967723846D-09 0.000000000000D+00
15 22  5 20 15 45  0.0 9.599234908819D-05-0.000000000000D+00 5.580000000000D+04
   -1.020663330078D+04-7.932853698730D-01-1.862645149231D-09 0.000000000000D+00
    2.087673291016D+04 1.210900306702D+00-9.313225746155D-10 0.000000000000D+00
   -1.050489892578D+04 3.170828819275D+00-0.000000000000D+00 0.000000000000D+00
17 22  5 20 15 45  0.0 5.277264863253D-04 2.728484105319D-12 5.580000000000D+04
   -7.719921386719D+03-1.066661834717D+00-3.725290298462D-09 0.000000000000D+00
    8.687750488281D+03-2.924728393555D+00-0.000000000000D+00 4.000000000000D+00
   -2.270059423828D+04-7.595815658569D-01 0.000000000000D+00 0.000000000000D+00
19 22  5 20 15 45  0.0-1.896768808365D-04-9.094947017729D-13 5.580000000000D+04
    8.987425292969D+03 3.210020065308D-01 9.313225746155D-10 0.000000000000D+00
    2.380804296875D+04 1.455249786377D-01-9.313225746155D-10 3.000000000000D+00
    1.755259277344D+03-3.603191375732D+00 0.000000000000D+00 0.000000000000D+00
18 22  5 20 16 15  0.0 1.174872741103D-04 9.094947017729D-13 5.760000000000D+04
    3.312407226562D+02-1.029253005981D+00-1.862645149231D-09 0.000000000000D+00
    1.796370019531D+04-2.267279624939D+00-0.000000000000D+00-3.000000000000D+00
   -1.812521337891D+04-2.259738922119D+00 9.313225746155D-10 0.000000000000D+00
14 22  5 20 16 15  0.0 2.561695873737D-05 0.000000000000D+00 5.760000000000D+04
   -1.614787939453D+04 9.798927307129D-01-0.000000000000D+00 0.000000000000D+00
    1.523811132812D+04-1.418531417847D+00-0.000000000000D+00-7.000000000000D+00
    1.258675439453D+04 2.975356101990D+00-2.793967723846D-09 0.000000000000D+00
15 22  5 20 16 15  0.0 9.599141776562D-05-0.000000000000D+00 5.760000000000D+04
   -1.107117041016D+04-1.891784667969D-01-1.862645149231D-09 0.000000000000D+00
    2.254129199219D+04 6.028108596802D-01-9.313225746155D-10 0.000000000000D+00
   -4.464827148438D+03 3.496732711792D+00-9.313225746155D-10 0.000000000000D+00
19 22  5 20 16 15  0.0-1.896787434816D-04-9.094947017729D-13 5.760000000000D+04
    9.254865234375D+03-6.202793121338D-02-0.000000000000D+00 0.000000000000D+00
    2.329988378906D+04-6.904411315918D-01-9.313225746155D-10 3.000000000000D+00
   -4.714547363281D+03-3.538803100586D+00 9.313225746155D-10 0.000000000000D+00
20 22  5 20 16 15  0.0-7.093697786331D-05-0.000000000000D+00 5.874000000000D+04
    1.463923046875D+04 1.090122222900D+00 2.793967723846D-09 0.000000000000D+00
    1.460720068359D+04 1.749018669128D+00-9.313225746155D-10 2.000000000000D+00
    1.496558398438D+04-2.769348144531D+00 0.000000000000D+00 0.000000000000D+00
